LEMUR-1                 
1 40044U 14033AL  26061.96688007  .00003273  00000+0  38382-3 0  9993
2 40044  97.7699 214.2587 0049842  67.4848 293.1632 14.84754939629708
LEMUR-2-GREENBERG       
1 42837U 17042N   26062.04350852  .00021120  00000+0  78145-3 0  9994
2 42837  97.3763 243.4486 0009499  26.5998 333.5727 15.27663907472168
LEMUR-2-ANDIS           
1 42838U 17042P   26062.02082053  .00024994  00000+0  85573-3 0  9993
2 42838  97.3647 243.3092 0009464  27.0582 333.1151 15.30172931472195
LEMUR-2-MONSON          
1 42839U 17042Q   26062.03098093  .00018799  00000+0  76101-3 0  9999
2 42839  97.4018 243.5458 0006963  15.9482 344.1974 15.24714254471976
LEMUR-2-FURIAUS         
1 42840U 17042R   26062.01096884  .00027105  00000+0  10584-2 0  9998
2 42840  97.3735 241.6417 0007636  80.7662 279.4440 15.25840935471992
LEMUR-2-PETERG          
1 42841U 17042S   26061.93979098  .00023084  00000+0  81387-3 0  9998
2 42841  97.3963 247.1508 0003997   4.7050 355.4227 15.29267884472170
LEMUR-2-DEMBITZ         
1 42842U 17042T   26061.98655286  .00021862  00000+0  83486-3 0  9998
2 42842  97.3792 244.5104 0007232  39.3603 320.8160 15.26629488472124
LEMUR-2-ZACHARY         
1 42845U 17042W   26061.96703346  .00047226  00000+0  11292-2 0  9997
2 42845  97.3649 251.9992 0003748  42.4362 317.7174 15.41331530472798
LEMUR-2-JIN-LUEN        
1 43182U 18014C   26061.74827622  .00224550  00000+0  14377-2 0  9996
2 43182  97.5453 351.3973 0001707  93.9946 266.1514 15.75656413444379
LEMUR-2-KADI            
1 43184U 18014E   26062.01232242  .00105126  00000+0  11642-2 0  9996
2 43184  97.4722 346.3015 0001225  43.4287 316.7068 15.62642573444344
LEMUR-2-AMANDA-SVANTE   
1 48269U 21034B   26062.16317544  .00031688  00000+0  11595-2 0  9994
2 48269  97.5848 138.1304 0002101 227.7624 132.3437 15.27987593264838
LEMUR-2-SPECIAL-K       
1 48273U 21034F   26062.17411567  .00070883  00000+0  15327-2 0  9997
2 48273  97.5731 143.2096 0001444 221.9143 138.1994 15.44239697265231
LEMUR-2-EMBRIONOVIS     
1 56970U 23084AQ  26061.95480782  .00009224  00000+0  27818-3 0  9997
2 56970  97.6116 202.4209 0008664 338.8061  21.2821 15.34499109151379
LEMUR-2-MANO            
1 57390U 23100E   26062.02883184  .00134323  00000+0  17206-2 0  9993
2 57390  99.4558  82.3651 0002556  60.5380 299.6124 15.58709786145448
LEMUR-2-DEVERILL-M-T    
1 57391U 23100F   26061.99927921  .00031581  00000+0  95063-3 0  9997
2 57391  99.4573  70.5637 0008785  48.1198 312.0787 15.34281705144936
LEMUR-2-BASS            
1 58259U 23174D   26062.19562160  .00020088  00000+0  51316-3 0  9998
2 58259  97.3898 145.6995 0007915 184.3889 175.7289 15.39472896129035
LEMUR-2-JK0903EM1407    
1 58336U 23174CJ  26062.20204130  .00030036  00000+0  61009-3 0  9990
2 58336  97.3932 150.1501 0006257 136.8848 223.2893 15.46265948129327
LEMUR-2-MJR092620       
1 58340U 23174CN  26061.82385127  .00014184  00000+0  33526-3 0  9997
2 58340  97.4000 150.1573 0008011 136.1466 224.0418 15.41908911129249
LEMUR-2-NIMBUS2000      
1 58899U 24022A   26062.11434219  .00020268  00000+0  57009-3 0  9991
2 58899  97.4231 270.9679 0010375 134.7328 225.4762 15.36470803115968
LEMUR-2-VALHALLA        
1 58900U 24022B   26062.15761324  .00019661  00000+0  55718-3 0  9998
2 58900  97.4230 271.0476 0010984 130.4483 229.7721 15.36236157115973
LEMUR-2-OBA-NI-JESU     
1 58902U 24022D   26062.14393281  .00108618  00000+0  11455-2 0  9992
2 58902  97.4069 279.8730 0005160  89.1737 271.0113 15.63873606116574
LEMUR-2-CAEL            
1 58903U 24022E   26062.12006291  .00020596  00000+0  56296-3 0  9994
2 58903  97.4216 271.7732 0009404 114.9532 245.2690 15.37369154116029
LEMUR-2-JOHNNYTRUONG    
1 59146U 24043BA  26061.95044822  .00041646  00000+0  67859-3 0  9995
2 59146  97.5245 207.7909 0005338 207.6830 152.4138 15.52505666111512
LEMUR-2-TOMATOKECHUP    
1 60471U 24149D   26062.16768955  .00014594  00000+0  45209-3 0  9996
2 60471  97.3859 144.1124 0000898 205.9651 154.1547 15.33548678 85900
LEMUR-2-STELLA          
1 60533U 24149BT  26062.16336095  .00015083  00000+0  95045-3 0  9998
2 60533  97.6791 144.3415 0001558  96.3973 263.7433 15.09245004 84499
LEMUR-2-MARHISYAM       
1 60536U 24149BW  26062.17520857  .00014289  00000+0  91172-3 0  9997
2 60536  97.6930 144.6862 0003242 123.1448 237.0091 15.08795894 84483
LEMUR-2-AHMED-ASRAR     
1 60576U 24149DN  26062.17342138  .00014433  00000+0  88720-3 0  9991
2 60576  97.7046 146.3870 0002173  39.9601 320.1788 15.10163204 84553
LEMUR-2-LLOYD           
1 60577U 24149DP  26062.15246183  .00012480  00000+0  83701-3 0  9997
2 60577  97.6810 143.3843 0005163 140.9787 219.1814 15.06982357 84414
LEMUR-2-SQUIRRELCOMM    
1 60578U 24149DQ  26062.18190000  .00009140  00000+0  63499-3 0  9998
2 60578  97.6759 143.5168 0006272  60.7652 299.4201 15.05749366 84445
LEMUR-2-SIERRINI        
1 60579U 24149DR  26062.17595963  .00014838  00000+0  95500-3 0  9993
2 60579  97.6891 144.4811 0006120 169.9798 190.1553 15.08457684 84464
LEMUR-2-WILSON          
1 62694U 25009CP  26062.13730685  .00002893  00000+0  27225-3 0  9994
2 62694  97.7086 142.4818 0003913  50.1780 309.9784 14.94630166 61514
LEMUR-2-STAR-FOX        
1 62696U 25009CR  26062.21206785  .00011783  00000+0  93365-3 0  9990
2 62696  97.7066 144.7103 0002154 165.7487 194.3798 15.00715106 61651
LEMUR-2-ARIANNA         
1 62699U 25009CU  26062.20693911  .00009202  00000+0  73000-3 0  9990
2 62699  97.7028 144.5698 0004359 159.5151 200.6249 15.00734447 61658
LEMUR-2-ALISIA          
1 62706U 25009DB  26061.73832303  .00009717  00000+0  76520-3 0  9997
2 62706  97.7075 144.7546 0006256 174.9664 185.1624 15.00991747 84186
LEMUR-2-ROUNDTRIPPER    
1 62711U 25009DG  26062.16607866  .00010608  00000+0  81508-3 0  9998
2 62711  97.7310 145.1325 0004585 143.8946 216.2589 15.01915283 61706
LEMUR-2-MYNAMEISJEFF    
1 62712U 25009DH  26062.16459751  .00010466  00000+0  80455-3 0  9999
2 62712  97.7359 145.4492 0003697 172.1359 187.9923 15.01903344 61705
LEMUR-2-LEIA-PHILIP     
1 63246U 25052AN  26061.92911195  .00007418  00000+0  65707-3 0  9994
2 63246  97.6978 315.6358 0002559 196.8612 163.2525 14.96530618 52772
LEMUR-2-LIA-MARTIN      
1 63248U 25052AQ  26062.15183818  .00006193  00000+0  54713-3 0  9999
2 63248  97.7020 316.2115 0002952 160.8023 199.3310 14.96702705 52810
LEMUR-2-DELOITTE-1      
1 63259U 25052BB  26062.12058970  .00006439  00000+0  56852-3 0  9997
2 63259  97.7055 316.4919 0003227  92.2734 267.8858 14.96706335 52829
LEMUR-2-EMERSONROSE     
1 63261U 25052BD  26061.93268491  .00006994  00000+0  59500-3 0  9998
2 63261  97.7048 316.6527 0003417  66.2901 293.8680 14.98125988 52822
LEMUR-2-MARACHE-FRAN    
1 63262U 25052BE  26062.16638486  .00007729  00000+0  64610-3 0  9995
2 63262  97.7007 317.0723 0002388  42.2188 317.9218 14.98775181 52874
LEMUR-2-THEFALCONER     
1 63264U 25052BG  26061.66312239  .00005494  00000+0  48954-3 0  9996
2 63264  97.7005 315.7768 0002943  38.9181 321.2252 14.96412267 52754
LEMUR-2-UNTITLED-SC     
1 63351U 25061A   26062.01242052  .00006589  00000+0  37973-3 0  9993
2 63351  97.5542  38.2746 0017276 271.8712  88.0540 15.12607063 51533
LEMUR-2-ESPERANZA       
1 63352U 25061B   26061.92939568  .00005730  00000+0  33014-3 0  9997
2 63352  97.5550  38.2622 0016739 271.5504  88.3810 15.12684435 51525
LEMUR-2-KREMPEL-BRO2    
1 63353U 25061C   26061.92016868  .00005581  00000+0  31796-3 0  9996
2 63353  97.5597  38.6514 0017625 263.4858  96.4366 15.13087400 51535
LEMUR-2-THERMORAPTOR    
1 63354U 25061D   26061.97326712  .00005584  00000+0  31746-3 0  9992
2 63354  97.5601  38.7608 0017405 262.0921  97.8335 15.13164473 51547
LEMUR-2-NEUROSPICY      
1 63355U 25061E   26061.88679773  .00007878  00000+0  44523-3 0  9996
2 63355  97.5524  38.3843 0015319 266.7206  93.2273 15.13273399 51536
LEMUR-2-TILLINFINITY    
1 63356U 25061F   26061.89689940  .00006033  00000+0  33627-3 0  9990
2 63356  97.5512  38.6107 0016548 253.5940 106.3472 15.13850056 51554
LEMUR-2-KREMPEL-BRO1    
1 63357U 25061G   26061.98947663  .00005507  00000+0  30868-3 0  9999
2 63357  97.5517  38.6468 0017114 254.2952 105.6391 15.13685000 51569
LEMUR-2-LANGER2SPACE    
1 63358U 25061H   26061.92859876  .00005767  00000+0  32613-3 0  9990
2 63358  97.5521  38.4436 0015087 264.6286  95.3224 15.13370835 51545
LEMUR-2-BALTO           
1 63395U 25052BH  26061.95234648  .00007000  00000+0  58510-3 0  9994
2 63395  97.7009 316.8579 0003168  18.7287 341.4052 14.98813347 52846
